     3.04           N: GNSS NAV DATA    M: MIXED            RINEX VERSION / TYPE
ssrcrin-15.6.1x                         20250101 220000 UTC PGM / RUN BY / DATE 
    18                                                      LEAP SECONDS        
                                                            END OF HEADER       
E31 2025 01 01 22 00 00-4.889711271971E-05-1.463718035666E-12 0.000000000000E+00
     5.600000000000E+01-2.556250000000E+01 3.496574217780E-09 1.934029950373E+00
    -1.125037670135E-06 1.740935258567E-04 6.237998604774E-06 5.440602888107E+03
     3.384000000000E+05-3.725290298462E-09 2.413359441948E+00 3.911554813385E-08
     9.641948860615E-01 2.074687500000E+02 1.941928177789E-01-5.544159507926E-09
    -4.639478967207E-10 2.580000000000E+02 2.347000000000E+03
     3.120000000000E+00 0.000000000000E+00 2.095475792885E-09 0.000000000000E+00
     3.391400000000E+05
E23 2025 01 01 22 00 00 8.339411579072E-06-1.989519660128E-13 0.000000000000E+00
     5.600000000000E+01-2.462500000000E+01 3.501931583793E-09 1.292419297126E+00
    -1.100823283195E-06 3.616076428443E-04 6.046146154404E-06 5.440610263824E+03
     3.384000000000E+05-7.636845111847E-08 2.409409816219E+00 3.725290298462E-09
     9.661001071816E-01 2.155625000000E+02 1.617128611555E+00-5.585589805093E-09
    -4.796628370253E-10 2.580000000000E+02 2.347000000000E+03
     3.120000000000E+00 4.800000000000E+01-6.984919309616E-10 0.000000000000E+00
     3.391400000000E+05
S23 2025 01 01 22 12 16 0.000000000000E+00 0.000000000000E+00 3.391470000000E+05
     3.866796400000E+04 0.000000000000E+00 0.000000000000E+00 6.300000000000E+01
     1.681330800000E+04 0.000000000000E+00 0.000000000000E+00 3.276700000000E+04
     0.000000000000E+00 0.000000000000E+00 0.000000000000E+00 1.100000000000E+02
S36 2025 01 01 22 13 04 0.000000000000E+00 0.000000000000E+00 3.391880000000E+05
     4.200368800000E+04 0.000000000000E+00 0.000000000000E+00 6.300000000000E+01
     3.674846960000E+03 0.000000000000E+00 0.000000000000E+00 3.276700000000E+04
     0.000000000000E+00 0.000000000000E+00 0.000000000000E+00 1.650000000000E+02
E13 2025 01 01 22 00 00-2.862379187718E-05-4.405364961713E-13 0.000000000000E+00
     5.600000000000E+01 1.784375000000E+02 2.614751772050E-09-2.790827520300E+00
     8.231028914452E-06 3.847769694403E-04 2.568587660789E-06 5.440608892441E+03
     3.384000000000E+05-5.774199962616E-08-1.776055561009E+00-3.725290298462E-09
     9.996891305278E-01 3.022187500000E+02-1.103139616570E+00-5.543088034723E-09
     2.339383158984E-10 2.580000000000E+02 2.347000000000E+03
     3.120000000000E+00 0.000000000000E+00 2.561137080193E-09 0.000000000000E+00
     3.391900000000E+05
S23 2025 01 01 22 14 24 0.000000000000E+00 0.000000000000E+00 3.392740000000E+05
     3.866796400000E+04 0.000000000000E+00 0.000000000000E+00 6.300000000000E+01
     1.681330800000E+04 0.000000000000E+00 0.000000000000E+00 3.276700000000E+04
     0.000000000000E+00 0.000000000000E+00 0.000000000000E+00 1.110000000000E+02
